*******************************************************************************
 Revised: June 21, 2016                 Mars                            499 / 4
 
 PHYSICAL DATA (updated 2019-Oct-29):
  Vol. mean radius (km) = 3389.92+-0.04   Density (g/cm^3)      =  3.933(5+-4)
  Mass x10^23 (kg)      =    6.4171       Flattening, f         =  1/169.779
  Volume (x10^10 km^3)  =   16.318        Equatorial radius (km)=  3396.19
  Sidereal rot. period  =   24.622962 hr  Sid. rot. rate, rad/s =  0.0000708822 
  Mean solar day (sol)  =   88775.24415 s Polar gravity m/s^2   =  3.758
  Core radius (km)      = ~1700           Equ. gravity  m/s^2   =  3.71
  Geometric Albedo      =    0.150                                              

  GM (km^3/s^2)         = 42828.375214    Mass ratio (Sun/Mars) = 3098703.59
  GM 1-sigma (km^3/s^2) = +- 0.00028      Mass of atmosphere, kg= ~ 2.5 x 10^16
  Mean temperature (K)  =  210            Atmos. pressure (bar) =    0.0056 
  Obliquity to orbit    =   25.19 deg     Max. angular diam.    =  17.9"
  Mean sidereal orb per =    1.88081578 y Visual mag. V(1,0)    =  -1.52
  Mean sidereal orb per =  686.98 d       Orbital speed,  km/s  =  24.13
  Hill's sphere rad. Rp =  319.8          Escape speed, km/s    =   5.027
                                 Perihelion  Aphelion    Mean
  Solar Constant (W/m^2)         717         493         589
  Maximum Planetary IR (W/m^2)   470         315         390
  Minimum Planetary IR (W/m^2)    30          30          30
*******************************************************************************
 
 
*******************************************************************************
Ephemeris / WWW_USER Sat Jun  5 17:05:02 2021 Pasadena, USA      / Horizons
*******************************************************************************
Target body name: Mars (499)                      {source: mar097}
Target point    : (user defined coordinates below)
Center body name: Earth (399)                     {source: mar097}
Center-site name: (user defined site below)
*******************************************************************************
Start time      : A.D. 1959-Jan-01 00:00:00.0000 TDB
Stop  time      : A.D. 1959-Jan-02 01:00:00.0000 TDB
Step-size       : 5 minutes
*******************************************************************************
Target geodetic : 350.540000,40.7500000,3.748E-13 {W-lon(deg),Lat(deg),Alt(km)}
Target cylindric: 350.540000,2579.29254,2196.3748 {W-lon(deg),Dxy(km),Dz(km)}
Target pole/equ : IAU_MARS                        {West-longitude positive}
Target radii    : 3396.2 x 3396.2 x 3376.2 km     {Equator, meridian, pole}    
Center geodetic : 116.540000,33.8000000,2.117E-12 {E-lon(deg),Lat(deg),Alt(km)}
Center cylindric: 116.540000,5305.63141,3528.0335 {E-lon(deg),Dxy(km),Dz(km)}
Center pole/equ : High-precision EOP model        {East-longitude positive}
Center radii    : 6378.1 x 6378.1 x 6356.8 km     {Equator, meridian, pole}    
Output units    : KM-S
Output type     : GEOMETRIC cartesian states
Output format   : 3 (position, velocity, LT, range, range-rate)
EOP file        : eop.210604.p210826
EOP coverage    : DATA-BASED 1962-JAN-20 TO 2021-JUN-04. PREDICTS-> 2021-AUG-25
Reference frame : Ecliptic of J2000.0
*******************************************************************************
            JDTDB,            Calendar Date (TDB),                      X,                      Y,                      Z,                     VX,                     VY,                     VZ,                     LT,                     RG,                     RR,
**************************************************************************************************************************************************************************************************************************************************************************
$$SOE
2436570.111111111, A.D. 1959-Jan-01 14:40:00.0000,  7.340403853943574E+07,  8.178997935532413E+07,  3.606122201578751E+06,  7.372029971310239E+00,  1.238855238653623E+01,  6.827280337781962E-01,  3.667803463710766E+02,  1.099579815846764E+08,  1.415866492225874E+01,
2436570.114583333, A.D. 1959-Jan-01 14:45:00.0000,  7.340625074624495E+07,  8.179369760221724E+07,  3.606326347381003E+06,  7.375977381753132E+00,  1.239977641120109E+01,  6.782458883219098E-01,  3.667945202773947E+02,  1.099622308148910E+08,  1.416952322417371E+01,
2436570.118055556, A.D. 1959-Jan-01 14:50:00.0000,  7.340846410292980E+07,  8.179741923063837E+07,  3.606529150360722E+06,  7.379695476010962E+00,  1.241109510436457E+01,  6.737762344120810E-01,  3.668087050088274E+02,  1.099664832903933E+08,  1.418029936736906E+01,
2436570.121527778, A.D. 1959-Jan-01 14:55:00.0000,  7.341067854040118E+07,  8.180114426826392E+07,  3.606730614580981E+06,  7.383182310726990E+00,  1.242250363168315E+01,  6.693211751207517E-01,  3.668229004807454E+02,  1.099707389858120E+08,  1.419098853505875E+01,
2436570.125000000, A.D. 1959-Jan-01 15:00:00.0000,  7.341289398900336E+07,  8.180487274131377E+07,  3.606930744734820E+06,  7.386436051885842E+00,  1.243399711741989E+01,  6.648828072736013E-01,  3.668371066037203E+02,  1.099749978743373E+08,  1.420158595241669E+01,
2436570.128472222, A.D. 1959-Jan-01 15:05:00.0000,  7.341511037854706E+07,  8.180860467453921E+07,  3.607129546143334E+06,  7.389454975656022E+00,  1.244557064674224E+01,  6.604632204612999E-01,  3.668513232835678E+02,  1.099792599277334E+08,  1.421208688881160E+01,
2436570.131944444, A.D. 1959-Jan-01 15:10:00.0000,  7.341732763834226E+07,  8.181234009121142E+07,  3.607327024753261E+06,  7.392237469186844E+00,  1.245721926802677E+01,  6.560644960591233E-01,  3.668655504213921E+02,  1.099835251163521E+08,  1.422248666001674E+01,
2436570.135416667, A.D. 1959-Jan-01 15:15:00.0000,  7.341954569723199E+07,  8.181607901311091E+07,  3.607523187134415E+06,  7.394782031350193E+00,  1.246893799521188E+01,  6.516887062364072E-01,  3.668797879136348E+02,  1.099877934091472E+08,  1.423278063041833E+01,
2436570.138888889, A.D. 1959-Jan-01 15:20:00.0000,  7.342176448362564E+07,  8.181982146051757E+07,  3.607718040476661E+06,  7.397087273434340E+00,  1.248072181013772E+01,  6.473379129833479E-01,  3.668940356521233E+02,  1.099920647736897E+08,  1.424296421518281E+01,
2436570.142361111, A.D. 1959-Jan-01 15:25:00.0000,  7.342398392553294E+07,  8.182356745220117E+07,  3.607911592586953E+06,  7.399151919772227E+00,  1.249256566492131E+01,  6.430141671316916E-01,  3.669082935241233E+02,  1.099963391761824E+08,  1.425303288240650E+01,
2436570.145833333, A.D. 1959-Jan-01 15:30:00.0000,  7.342620395059809E+07,  8.182731700541314E+07,  3.608103851885639E+06,  7.400974808326828E+00,  1.250446448434083E+01,  6.387195073833931E-01,  3.669225614123935E+02,  1.100006165814774E+08,  1.426298215524352E+01,
2436570.149305556, A.D. 1959-Jan-01 15:35:00.0000,  7.342842448613386E+07,  8.183107013587834E+07,  3.608294827402659E+06,  7.402554891229852E+00,  1.251641316822704E+01,  6.344559593491113E-01,  3.669368391952405E+02,  1.100048969530919E+08,  1.427280761400826E+01,
2436570.152777778, A.D. 1959-Jan-01 15:40:00.0000,  7.343064545915549E+07,  8.183482685778826E+07,  3.608484528773680E+06,  7.403891235238199E+00,  1.252840659384007E+01,  6.302255345979582E-01,  3.669511267465776E+02,  1.100091802532260E+08,  1.428250489821243E+01,
2436570.156250000, A.D. 1959-Jan-01 15:45:00.0000,  7.343286679641573E+07,  8.183858718379445E+07,  3.608672966235548E+06,  7.404983022172504E+00,  1.254043961832563E+01,  6.260302296909481E-01,  3.669654239359851E+02,  1.100134664427810E+08,  1.429206970864858E+01,
2436570.159722222, A.D. 1959-Jan-01 15:50:00.0000,  7.343508842443927E+07,  8.184235112500291E+07,  3.608860150621705E+06,  7.405829549270940E+00,  1.255250708112124E+01,  6.218720252405401E-01,  3.669797306287730E+02,  1.100177554813778E+08,  1.430149780938086E+01,
2436570.163194444, A.D. 1959-Jan-01 15:55:00.0000,  7.343731026955716E+07,  8.184611869096912E+07,  3.609046093357299E+06,  7.406430229507953E+00,  1.256460380637990E+01,  6.177528849773308E-01,  3.669940466860448E+02,  1.100220473273761E+08,  1.431078502972548E+01,
2436570.166666667, A.D. 1959-Jan-01 16:00:00.0000,  7.343953225794169E+07,  8.184988988969386E+07,  3.609230806453962E+06,  7.406784591848543E+00,  1.257672460540163E+01,  6.136747548212398E-01,  3.670083719647633E+02,  1.100263419378947E+08,  1.431992726619414E+01,
2436570.170138889, A.D. 1959-Jan-01 16:05:00.0000,  7.344175431564146E+07,  8.185366472761950E+07,  3.609414302504215E+06,  7.406892281458426E+00,  1.258886427911569E+01,  6.096395619466417E-01,  3.670227063178201E+02,  1.100306392688314E+08,  1.432892048444552E+01,
2436570.173611111, A.D. 1959-Jan-01 16:10:00.0000,  7.344397636861593E+07,  8.185744320962763E+07,  3.609596594675895E+06,  7.406753059838857E+00,  1.260101762048121E+01,  6.056492138833915E-01,  3.670370495941046E+02,  1.100349392748845E+08,  1.433776072112704E+01,
2436570.177083333, A.D. 1959-Jan-01 16:15:00.0000,  7.344619834277056E+07,  8.186122533903681E+07,  3.609777696706034E+06,  7.406366804924247E+00,  1.261317941697864E+01,  6.017055975981638E-01,  3.670514016385769E+02,  1.100392419095742E+08,  1.434644408575850E+01,
2436570.180555556, A.D. 1959-Jan-01 16:20:00.0000,  7.344842016399157E+07,  8.186501111760120E+07,  3.609957622894544E+06,  7.405733511129514E+00,  1.262534445302823E+01,  5.978105786159915E-01,  3.670657622923405E+02,  1.100435471252645E+08,  1.435496676252945E+01,
2436570.184027778, A.D. 1959-Jan-01 16:25:00.0000,  7.345064175818098E+07,  8.186880054551029E+07,  3.610136388097648E+06,  7.404853289317349E+00,  1.263750751246822E+01,  5.939660001203837E-01,  3.670801313927191E+02,  1.100478548731862E+08,  1.436332501208661E+01,
